uuid,name,brand,street,house_number,post_code,city,latitude,longitude,cluster_20,cluster_25,cluster_30,cluster_35,cluster_40
2acc4724-ea6a-4874-baa6-e191ccb12756,"MUENCHEN, INNSBRUCKER RING",Shell,INNSBRUCKER RING 142,,81669,MUENCHEN,48.114907,11.617154,3.0,5.0,5.0,6.0,6
5a8fc6fd-6f03-4157-a7af-b0ee2b75307b,Esso Tankstelle,ESSO,MUENCHNER STR. 14, ,82319,STARNBERG,48.002091,11.348624,,8.0,7.0,9.0,13
6c2ff229-2e9a-47da-8394-8bff5ab91875,Esso Tankstelle,ESSO,EFFNERSTR. 130, ,81925,MUENCHEN,48.162809,11.624476,3.0,5.0,5.0,6.0,6
802e24d9-e991-4be7-bac1-7a4e4fc683e2,Aral Tankstelle,ARAL,Ingolstädter Str.,164-166,80939,München,48.20178,11.5861492,2.0,4.0,4.0,5.0,5
8d21423c-093d-43d1-99e4-da01ba69a9f8,Freie Tankstellen Singer,AVIA,Hauptstr.,19,85643,Tulling,48.083397,12.059923,,,,,0
f43d6a5b-352a-480f-836a-4ec6ca7b2da7,TOTAL FORSTERN,TOTAL,HAUPTSTR.,40,85659,FORSTERN,48.186554,11.975332,,,,0.0,1
00060279-0001-4444-8888-acdc00000001,A-S-C Schreyer,Tankstelle Schreyer,Lorenz-Braren-Str ,31,85229,Markt Indersdorf,48.348823547363,11.371603012085,,,1.0,1.0,1
00060289-0001-4444-8888-acdc00000001,Tankstelle Unsin,,Dachauer Str.,13,85253,Erdweg-Großberghofen,48.321155548096,11.316249847412,,,1.0,1.0,1
00060293-0001-4444-8888-acdc00000001,Erich Walter OHG,BFT,Rosen Str.,2,82216,Maisach,48.221450805664,11.265246391296,,1.0,2.0,2.0,2
00060441-0001-4444-8888-acdc00000001,Tankhof Sauerlach ,TANKHOF SAUERLACH,Ludwig-Bölkow-Straße ,1,82054,Sauerlach,47.971649169922,11.662834167481,0.0,2.0,0.0,1.0,1
00060446-0001-4444-8888-acdc00000001,Freie Tankstelle Schuster,,Münchner Str. ,31,82041,Oberhaching,48.029453277588,11.601210594177,0.0,2.0,0.0,0.0,1
00060471-0001-4444-8888-acdc00000001,Seitz Tankstelle Jetzendorf,Seitz Tankstellen,Gewerbering,1,85305,Jetzendorf,48.429363250732,11.427619934082,,,,1.0,1
00060508-0002-4444-8888-acdc00000002,Hans Ritz GmbH,Freie Tankstelle Hans Ritz,Ayingerstraße ,3,85649,Faistenhaar,47.984237670898,11.716430664062,0.0,2.0,0.0,1.0,1
00060558-0005-4444-8888-acdc00000005,Seitz Tankstelle Röhrmoos,Seitz Tankstellen,Schlammerstraße ,1,85244,Röhrmoos,48.33472442627,11.438884735107,,2.0,1.0,1.0,1
00060472-0003-4444-8888-acdc00000003,Seitz Tankstelle Alberzell,Seitz Tankstellen,Singenbacher Straße,24,85302,Alberzell,48.460731506348,11.343946456909,,,,,1
00060861-0006-4444-8888-acdc00000006,Seitz Tankstelle Niederroth,Seitz Tankstellen,Münchner Straße,9,85229,Niederroth,48.32597732544,11.3884973526,,,1.0,1.0,1
00061016-0008-4444-8888-acdc00000008,Seitz Tankstelle Hohenkammer,Seitz Tankstellen,Eisfeldstraße,2,85411,Hohenkammer,48.42879486084,11.523527145386,,,,1.0,1
00061017-0007-4444-8888-acdc00000007,Seitz Tankstelle Erdweg,Seitz Tankstellen,Hauptstraße,34,85253,Erdweg,48.331123352051,11.306722640991,,,1.0,1.0,1
00061428-0002-4444-8888-acdc00000002,E-Center Tankstelle,EDEKA,Haidling ,16,85567,Grafing,48.033046722412,11.959246635437,,,,3.0,3
00061467-0010-4444-8888-acdcffffffff,Kloiber GmbH,BFT-Tankstelle Kloiber GmbH,Gewerbering ,28,85238,Petershausen,48.41618347168,11.478831291199,,,,1.0,1
00061555-0001-4444-8888-acdc00000001,SI-Automobil-Service-Center GmbH,ST 2 Tankstelle,Indersdorferstraße,68,85256,Vierkirchen,48.360893249512,11.447950363159,,,1.0,1.0,1
00061651-0001-4444-8888-acdc00000001,Tankstelle Hamberger Großmarkt GmbH,,Friedenstraße,16,81671,München,48.12665939331,11.606442451477,1.0,3.0,3.0,4.0,4
0055bbb5-2c30-4cb9-89f4-d937cf121770,Aral Tankstelle,ARAL,Waldwiesenstraße,31,81375,München,48.11868,11.478302,2.0,4.0,4.0,5.0,5
00d5c1b0-ad92-428e-b1e0-067d8b8a76bc,München,Mr. Wash Autoservice AG,Landsberger Straße,420+426,81241,München,48.145315,11.477435,2.0,4.0,4.0,5.0,5
02071bff-1f29-4c5e-9823-3644589ee89e,"MUENCHEN, GUNDERMANNSTR.6.",Shell,GUNDERMANNSTR. 6,,80935,MUENCHEN,48.204544,11.558951,2.0,4.0,4.0,5.0,5
0271f0fc-65ed-4725-a922-57eec615195b,ALLGUTH GmbH  c/o Michael Dersch,ALLGUTH,Triebstraße,35,80993,München,48.187122,11.534851,2.0,4.0,4.0,5.0,5
05a9dda6-b9d0-4bc7-9374-47aa0387eb52,Freie Tankstelle Huber,Freie Tankstelle Huber,Öhnböcker Straße,5,82544,Egling,47.92424,11.50892,,2.0,0.0,1.0,1
09d5951b-3495-4160-a14a-52290eda4406,Hörndl Tank-u. Servicecenter,Hörndl Freie Tankstelle,Gewerbebogen,4,85661,Forstinning,48.17095,11.92062,,,1.0,1.0,1
09d6912f-0b17-4b80-9a90-8e9bbc297895,FTO-Freie Tankstelle Oliv,,Hauptstr,11,82549,Königsdorf,47.818496,11.482945,,,,,7
0a3ed70f-3854-4126-8b12-2d492a058b36,Bruckmühl Albert-Mayer-Str. 22,OMV,Albert-Mayer-Str.,22,83052,Bruckmühl,47.88208,11.93292,,,,,8
0a404032-7c67-4769-aeb6-2e153747c1f2,Bavaria Petrol,Bavaria Petrol,Ingolstädter Straße,59,80939,München,48.19296,11.58364,2.0,4.0,4.0,5.0,5
0abaccf2-5efa-4536-b5c5-afe3932e3724,"MUENCHEN, UNGERERSTR.",Shell,UNGERERSTR. 65,,80805,MUENCHEN,48.17129,11.594731,2.0,4.0,4.0,5.0,5
0c3b710a-3aae-45c9-998d-e0783ef83b60,"MUENCHEN, GRILLPARZERSTR",Shell,GRILLPARZERSTR. 15,,81675,MUENCHEN,48.134553,11.609854,3.0,5.0,5.0,6.0,6
0e18d0d3-ed38-4e7f-a18e-507a78ad901d,OIL! Tankstelle München,OIL!,Eversbuschstraße 33,,80999,München,48.1807,11.4609,2.0,4.0,4.0,5.0,5
0e630d02-c047-4bc4-b7f4-66450b4ffd67,MUENCHEN - QUIDDESTRAßE,Agip,Quiddestraße,31,81735,Muenchen,48.10898,11.64326,3.0,5.0,5.0,6.0,6
0e958d31-5503-4b9c-bf1d-5a18e20c473e,"MUENCHEN, SCHLEISSHEIMER STR.",Shell,SCHLEISSHEIMER STR. 272,,80809,MUENCHEN,48.174502,11.566272,2.0,4.0,4.0,5.0,5
0ea2f653-bce6-4e71-80b2-8cf7c893ba54,Aral Tankstelle,ARAL,Münchener Straße,42,82131,Gauting,48.06795,11.3872366,2.0,4.0,4.0,5.0,5
0f83c70b-31e7-43ba-967b-4361e5e69bf5,"ERDING, MUENCHENER STR.",Shell,MUENCHENER STR. 42,,85435,ERDING,48.303223,11.901461,,,,7.0,9
103afdaa-8f09-45df-a223-90f03f1f8d24,Poing Gruber Str. 80,OMV,Gruber Str.,80,85586,Poing,48.16862,11.7923,4.0,6.0,6.0,8.0,10
1106cf26-a0fa-48c3-8fdf-552dd038373b,"KARLSFELD, MÜNCHNER STR. 163.",Shell,MÜNCHNER STR. 163,,85757,KARLSFELD,48.225518,11.468155,2.0,4.0,4.0,5.0,5
11fd3e93-6c6e-43a5-baca-57260c10093c,ALLGUTH GmbH  c/o Gerald Poscharnig,ALLGUTH,Dieselstraße,100,85774,Unterföhring,48.18026,11.65478,3.0,5.0,5.0,6.0,6
123dd3f2-f551-4ecf-bda6-5b0be1a37005,BK-Tankstelle Uwe Möderl,,Hauptstraße ,9,82216,Maisach,48.2176,11.26055,,,2.0,2.0,2
1273302b-5410-4236-b8fa-391eaccb6295,Esso Tankstelle,ESSO,MUENCHENER STR. 57, ,85435,ERDING,48.301261,11.90053,,,,7.0,9
13c9783f-aaaf-471f-a296-d2b6f7dbb5d9,Tankstelle Schauer Stefanie,,Bahnhofstr. ,15,82299,Türkenfeld,48.10849,11.08265,,,,,11
16f46816-2141-41d4-b1d3-5ab808f1484d,BK-Tankstelle Auto Behnke GmbH,,Münchner Str. ,12,85667,Oberpframmern,48.0234,11.810742,,2.0,0.0,0.0,1
17e1d0a9-62fe-466d-9dac-455ef508dbfc,Aral Tankstelle,ARAL,Freischützstraße,4,81927,München,48.15757,11.6422386,3.0,5.0,5.0,6.0,6
19a36bac-ea1e-42b2-b7cd-c9f0fa8d0bd1,Esso Tankstelle,ESSO,WASSERBURGER LANDSTR. 292, ,81827,MUENCHEN,48.11079725,11.71430291,3.0,5.0,5.0,6.0,6
1a59fc8f-54b2-4793-9878-f55e023fb289,Bavaria Petrol,Bavaria Petrol,Zehentbauernstraße,7,81539,München,48.1142769,11.5762835,3.0,5.0,5.0,6.0,6
1b2de9d7-f360-4af8-a563-749a44418a27,ALLGUTH GmbH  c/o Alexander Schelling,ALLGUTH,Georg-Brauchle-Ring,30,80992,München,48.17653,11.535329,2.0,7.0,2.0,2.0,12
1b75ed80-2574-4156-aab9-5efb7d29e503,Esso Tankstelle,ESSO,UNGERERSTR. 54, ,80802,MUENCHEN,48.166116,11.590793,2.0,4.0,4.0,5.0,5
1cf17a0c-0091-4ea4-a12d-3ccf944c1947,Bavaria Petrol,Bavaria Petrol,Unterhachinger Straße,28,85521,Ottobrunn,48.0631447,11.6520119,0.0,0.0,0.0,0.0,0
1d46fba4-4886-4708-ae32-0ffad8d8a71f,"OTTOBRUNN, ROSENHEIMER LANDSTR.",Shell,ROSENHEIMER LANDSTR. 81,,85521,OTTOBRUNN,48.06027,11.664917,0.0,0.0,0.0,0.0,0
1f24686e-5700-43b0-9818-e7d9f000a9c2,BK-Tankstelle Anton Eschbaumer,,Ismaninger Straße ,13,85452,Moosinning,48.27554,11.834065,,2.0,0.0,0.0,1
1f4d9e78-38d8-45a5-84d0-2d6758380a1f,ALLGUTH GmbH  c/o Markus Berbalk,ALLGUTH,Chiemgaustr.,185,81549,München,48.109325,11.608658,3.0,5.0,5.0,6.0,6
1f939805-10bc-4227-967a-d96e97d9e48c,Aral Tankstelle,ARAL,Schondorfer Straße,12,86919,Utting am Ammersee,48.0277061,11.0855827,,,,,2
20d9d5ca-e707-40f6-8f92-d1d25aef555a,"DACHAU, WUERMSTR",Shell,WUERMSTR. 3,,85221,DACHAU,48.257508,11.462979,2.0,4.0,4.0,5.0,5
22ad5946-78de-4c03-8b3f-cb7bc0bf1c4d,ALLGUTH GmbH  c/o Maric Ivica,ALLGUTH,Münchner Str.,146,85757,Karlsfeld,48.22675,11.46493,2.0,4.0,4.0,5.0,5
23e00cd7-7415-4cda-a30a-836d26b3a4c3,"GILCHING, AM ROEMERSTEIN.",Shell,AM ROEMERSTEIN 16,,82205,GILCHING,48.105746,11.305187,,1.0,2.0,2.0,2
265e52da-a749-4517-9ba0-0566e9eaa33c,BK- Tankstelle Kastl,,Sonnenwiechserstr. ,43,83052,Bruckmühl,47.88371,11.927155,,,,,1
26bd62f8-6021-4418-ba4f-26100f8dca1e,"MUENCHEN, FUERSTENRIEDER STR.",Shell,FUERSTENRIEDER STR. 80,,80686,MUENCHEN,48.134003,11.502426,2.0,4.0,4.0,5.0,5
298ab794-5244-4a5f-8dbe-74c810c4c301,Esso Tankstelle,ESSO,ALLACHER STR. 20, ,80992,MUENCHEN,48.171821,11.507127,2.0,4.0,4.0,5.0,5
29b2c05b-a0ba-455f-b37a-d3c171358f31,Altomünster Aichacher Straße 13,OMV,Aichacher Str.,13,85250,Altomünster,48.38467,11.25065,,,,,8
2a6ec536-a1e2-44cd-aaa6-2abc46b36866,"München, Wasserburger Landstr. 285",HEM,Wasserburger Landstr.,285,81827,München,48.11121,11.71303,3.0,5.0,5.0,6.0,6
2aa5a805-38a3-450c-b92b-f08c78a5fad4,Aral Tankstelle,ARAL,Triebstraße,11e,80993,München,48.1876335,11.5308514,2.0,4.0,4.0,5.0,5
30638ceb-f6fe-4622-a22c-7b25602dbb05,TOTAL GROEBENZELL,TOTAL,OLCHINGER STR.,82,82194,GROEBENZELL,48.1861,11.384181,2.0,4.0,4.0,5.0,5
3118018a-15fe-4594-b75a-42d451037ff0,ALLGUTH GmbH  c/o Davide Cosentino,ALLGUTH,Fürstenrieder Straße,175,81377,München,48.11991,11.50302,2.0,8.0,7.0,9.0,13
32910e41-78b2-4c04-8170-38c3716c1232,Esso Tankstelle,ESSO,MUENCHENER STR. 15, ,85560,EBERSBERG,48.075966,11.963014,,,6.0,8.0,12
32f30926-01dd-41aa-9e05-7820caafd24f,Bavaria Petrol,Bavaria Petrol,Bodenseestraße,317,81249,München,48.1411858,11.4139547,2.0,4.0,4.0,5.0,5
340f434d-d973-48cd-930e-fd36bb46d124,ALLGUTH GmbH  c/o Thomas Ziegler,ALLGUTH,Leutstettener Str.,17,82319,Starnberg,48.0053,11.34913,,8.0,7.0,9.0,13
341c0b37-d4be-48d0-9f38-19a983694505,RAN Station,RAN,Münchner Str.,28,85354,Freising,48.3876,11.7368,,,,10.0,14
34ad8aa4-f447-4e08-be64-3142eb7629dd,Esso Tankstelle,ESSO,INNSBRUCKER RING 52, ,81671,MUENCHEN,48.123386,11.620232,3.0,5.0,5.0,6.0,6
34c0a4d3-3354-4f51-93ae-9e1b5bf6109f,VEWAG Verwaltungsgesellschaft mbH MW Tankstelle,,Alte Römer Str.,26,85435,Erding,48.31239,11.92051,,,,7.0,9
34c0c156-7eb2-4271-88e2-e7474dea15ca,Tankstelle Hedi Tauber,AVIA,Sonnenstraße,11,85232,Bergkirchen,48.259018,11.366684,,4.0,4.0,5.0,5
34d2cd04-efe1-4631-b56f-3d467f5988b6,TOTAL DACHAU,TOTAL,MUENCHNER STR,87,85221,DACHAU,48.245213,11.448775,2.0,4.0,4.0,5.0,5
364670ea-3d6c-448b-98e1-38c3b2bedb41,TAUFKIRCHEN - LINDENRING 5,Agip,Lindenring,5,82024,Taufkirchen,48.0521,11.60575,0.0,0.0,0.0,0.0,0
37b6464b-3645-4413-b635-46725421c835,Tansktelle Isen,Raiffeisen,Raiffeisenstr. ,1,84424,Isen,48.21389,12.05961,,,,,1
37d9e43f-38af-40e5-9402-abf6dee277c3,Aral Tankstelle,ARAL,Schleißheimer Straße,124,85748,Garching,48.2504,11.6067,7.0,10.0,9.0,12.0,16
3b7e660f-2f6c-4131-aece-8e859d8bdf62,Tankstelle Meier,Freie Tankstelle,Schulstraße ,1,85445,Schwaig,48.33946,11.83713,,,10.0,7.0,9
3bb87d5f-85b4-4206-ab88-58900c85d6d2,GRUENWALD - SUEDL.MUENCHENER STR.24,Agip,Suedl.Muenchener Str.,24 A,82031,Gruenwald,48.044654388867,11.528159934169,3.0,0.0,0.0,0.0,0
3cf58ebc-f182-445d-9e5e-3214576213a7,Krenn Tank-u. Shop GmbH,Freie Tankstelle Krenn,Kiefernstr. ,3,82549,Königsdorf,47.83168,11.478996,,,,13.0,7
3d2fe1ed-0684-4006-9b96-674a48debb8f,Aral Tankstelle,ARAL,Schleißheimer Straße,257,80809,München,48.1787872,11.5670967,2.0,4.0,4.0,5.0,5
3f0508b2-23a4-40bd-add2-f4b806bdf008,AVIA Tankstelle,AVIA,Freisinger Straße,2,85241,Hebertshausen,48.28949,11.471175,2.0,4.0,4.0,5.0,5
3f3b93ba-2d43-4d99-9416-efe161961bbb,MÜNCHEN - NEURIEDER STRASSE 18,Agip,Neurieder Strasse,18,81475,München,48.08752,11.48429,5.0,8.0,7.0,9.0,13
414897e6-396c-453a-98af-6816de6f3013,Tankstelle 1,Reitmayr TS,Augsburger Str. ,14,82178,Puchheim,48.1480546,11.3450828,8.0,2.0,1.0,14.0,11
417b06c4-5041-4e85-9227-8c9694ca9fb9,Esso Tankstelle,ESSO,ARNULFSTR. 279, ,80639,MUENCHEN,48.152336,11.514247,2.0,4.0,4.0,5.0,5
41c5eac2-7a17-46d8-90fe-d0a8c56db5fc,BK- Tankstelle Isarparkhaus,,Baader Str. ,6,80469,München,48.132946,11.580928,0.0,2.0,0.0,0.0,1
41d21507-a552-4311-873a-d0a2143292af,München Ottobrunner Straße 116,OMV,Ottobrunner Str.,116,81737,München,48.10269,11.62537,3.0,5.0,5.0,6.0,6
430f6f71-72cb-4996-9d4b-bb12d1793a92,ALLGUTH GmbH  c/o Qais Pirzai,ALLGUTH,Boschetsrieder Str.,139,81379,München,48.097958,11.511889,5.0,8.0,7.0,9.0,13
435c2e50-cc83-4620-9abc-0e972d7050d1,ALLGUTH GmbH  c/o Dragan Dugandzic,ALLGUTH ,Kreillerstraße,219,81825,München,48.121742,11.664057,3.0,5.0,5.0,6.0,6
43bd86fc-24e7-4880-9caf-8bc4d1fa42e9,TOTAL MUENCHEN,TOTAL,LERCHENAUER STR.,75,80809,MUENCHEN,48.18267,11.553935,2.0,4.0,4.0,5.0,5
4525cfca-7ed0-473c-add5-4ad165a93135,"BERG, A95 HOEHENRAIN OST",Shell,A95 HOEHENRAIN OST ,,82335,BERG,47.928612,11.401837,,,11.0,15.0,17
453b345b-e1a7-49a4-b785-89664328db7d,Aral Tankstelle,ARAL,Rosenheimer Straße,138,81669,München,48.1192055,11.6077719,3.0,5.0,5.0,6.0,6
47a417dc-a6f9-4890-b8e6-34672ab32f13,Pähl Unterhirschberg 4 a,Avanti,Unterhirschberg,4 a,82396,Pähl,47.8971,11.18832,,,,,5
4ab2ec26-a8ee-4e21-964d-a6425a9659b6,"KARLSFELD, MUENCHNER STR.",Shell,MUENCHNER STR. 174,,85757,KARLSFELD,48.224737,11.468527,2.0,4.0,4.0,5.0,5
4b7e7978-b9ac-4013-9c28-c6afbfd4cb2d,ALLGUTH GmbH c/o Roland Pawlik e.K.,ALLGUTH,Von-Kahr-Straße,1,80997,München,48.17871,11.48684,2.0,4.0,4.0,5.0,5
4b803544-57f2-49ae-9e49-670081e6d462,Garching Münchener Strasse 49,OMV,Münchener Str.,49,85748,Garching,48.24405,11.64723,7.0,10.0,9.0,12.0,16
4c256dc7-5995-4f7f-9b14-5eb222067462,Aral Tankstelle,ARAL,Isarstraße,3,85356,Freising,48.3974571,11.75929,,,,12.0,16
4ca27b13-2a7f-454d-a159-5907e83b1e24,ALLGUTH GmbH  c/o Werner Wagner,ALLGUTH,Landsberger Straße,90,82205,Gilching,48.09449,11.283,,8.0,7.0,9.0,13
4ced61f8-5a8f-4e52-9af6-57de5e3bff47,AVIA Tankstelle,AVIA,Hauptstraße,1,85254,Sulzemoos,48.28829,11.267048,,,2.0,5.0,5
51d4b42c-a095-1aa0-e100-80009459e03a,JET EGLHARTING HAUPTSTR. 45,JET,HAUPTSTR. 45,,85614,EGLHARTING,48.0819,11.8584,,1.0,6.0,8.0,12
51d4b442-a095-1aa0-e100-80009459e03a,JET KRAILLING GAUTINGER STR. 59,JET,GAUTINGER STR. 59,,82152,KRAILLING,48.09345,11.41162,2.0,4.0,4.0,5.0,5
51d4b46a-a095-1aa0-e100-80009459e03a,JET INNING BRUCKER STR. 2,JET,BRUCKER STR. 2,,82266,INNING,48.0788,11.1523,,,,5.0,2
51d4b47e-a095-1aa0-e100-80009459e03a,JET MUENCHEN TRUDERINGER STRASSE 186,JET,TRUDERINGER STRASSE 186,,81825,MUENCHEN,48.131712,11.643577,3.0,5.0,5.0,6.0,6
51d4b485-a095-1aa0-e100-80009459e03a,JET DACHAU DAIMLERSTR. 1,JET,DAIMLERSTR. 1,,85221,DACHAU,48.2618,11.4685,2.0,4.0,4.0,5.0,5
51d4b506-a095-1aa0-e100-80009459e03a,JET MUENCHEN VERDISTR. 142,JET,VERDISTR. 142,,81247,MUENCHEN,48.1648,11.4597,10.0,12.0,13.0,17.0,19
51d4b531-a095-1aa0-e100-80009459e03a,JET FELDKIRCHEN MUENCHNER STR. 23,JET,MUENCHNER STR. 23,,85622,FELDKIRCHEN,48.1448,11.7256,4.0,6.0,6.0,8.0,10
51d4b589-a095-1aa0-e100-80009459e03a,JET FREISING LANDSHUTER STRASSE 47,JET,LANDSHUTER STRASSE 47,,85356,FREISING,48.4065,11.7614,,,,12.0,16
51d4b591-a095-1aa0-e100-80009459e03a,JET MUENCHEN WOTANSTR. 85,JET,WOTANSTR. 85,,80639,MUENCHEN,48.1528,11.5073,2.0,4.0,4.0,5.0,5
51d4b5b3-a095-1aa0-e100-80009459e03a,JET MUENCHEN FUERSTENRIEDER STR. 98,JET,FUERSTENRIEDER STR. 98,,80686,MUENCHEN,48.1315,11.5027,2.0,4.0,4.0,5.0,5
51d4b5e8-a095-1aa0-e100-80009459e03a,Supermarkt-Tankstelle PULLACH WOLFRATSHAUSER STR. 110,Supermarkt-Tankstelle,WOLFRATSHAUSER STR. 110,,82049,PULLACH,48.06581,11.51658,5.0,8.0,7.0,9.0,13
51d4b61c-a095-1aa0-e100-80009459e03a,JET MUENCHEN DACHAUER STR. 240,JET,DACHAUER STR. 240,,80992,MUENCHEN,48.1785,11.5171,2.0,4.0,4.0,5.0,5
51d4b701-a095-1aa0-e100-80009459e03a,JET FORSTING PFAFFING MUENCHNER STR. 1B,JET,MUENCHNER STR. 1B,,83539,FORSTING PFAFFING,48.08,12.095,,,,,0
51d4b71e-a095-1aa0-e100-80009459e03a,JET MUENCHEN KARL-MARX-RING 48,JET,KARL-MARX-RING 48,,81735,MUENCHEN,48.107775,11.657653,3.0,5.0,5.0,6.0,6
52d554ea-73ce-4d4c-bee3-0a858ededb33,"MUENCHEN, LEOPOLDSTR.",Shell,LEOPOLDSTR. 140,,80804,MUENCHEN,48.168581,11.586574,2.0,4.0,4.0,5.0,5
52f1e679-abc9-45c7-ae19-0b5e5a73194a,OIL! Tankstelle Karlsfeld,OIL!,Boschstr. 12,,85757,Karlsfeld,48.2261,11.4847,2.0,4.0,4.0,5.0,5
5342d82a-fefd-44c8-a59d-be8111fdb867,"MUENCHEN, WILHELM.-HALE-STR.",Shell,WILHELM-HALE-STR. 55,,80639,MUENCHEN,48.148951,11.519951,2.0,4.0,4.0,5.0,5
53a40ec8-4a9c-459f-812d-27b64f0805ee,ALLGUTH GmbH  c/o Fr. Olena Fastovets-Guba,ALLGUTH,Hauptstr.,24,85664,Hohenlinden,48.155994,11.999013,,,,19.0,20
54653788-7857-4a91-baf7-7e58a8145224,Aral Tankstelle,ARAL,Nymphenburger Straße,205,80639,München,48.15773,11.5282726,2.0,4.0,4.0,5.0,5
5511a3ad-8e10-4838-8acb-1915927606d9,TOTAL MUENCHEN,TOTAL,MOOSACHER STR.,36,80809,MUENCHEN,48.18645,11.556034,2.0,4.0,4.0,5.0,5
553e94f7-94a5-4b98-918a-80e063fdcdad,"WOLFRATSHAUSEN, KOENIGSDORFER STR.",Shell,KOENIGSDORFER STR. 47,,82515,WOLFRATSHAUSEN,47.908327,11.428295,,,15.0,20.0,21
554aeca7-4b82-4b5a-b85f-1379e4b23352,TOTAL NEUFAHRN,TOTAL,MUENCHENER STR.,11A,85375,NEUFAHRN,48.31836,11.691503,,10.0,9.0,12.0,16
5603b5cf-e657-44a5-87d8-e0dfd141e313,Aral Tankstelle,ARAL,Gilchingerstraße,31,82239,Alling,48.1381,11.2993889,,1.0,2.0,2.0,2
56b46d12-9b37-457a-af36-b170356f49f6,BayWa Tankstelle Schondorf am Ammersee,BayWa,Landsberger Str. ,10,86938,Schondorf am Ammersee,48.054714,11.088136,,,,,2
5741629b-92a8-4a69-878a-e9b496a65dfa,Aral Tankstelle,ARAL,Georg-Brauchle-Ring,27,80992,München,48.1761055,11.5356159,2.0,4.0,4.0,5.0,5
59a68826-5a76-499f-82d3-f49fc076d284,TOTAL MUENCHEN,TOTAL,DETMOLDSTR.,1,80935,MUENCHEN,48.19231,11.564284,2.0,4.0,4.0,5.0,5
5c260943-10ef-4129-8036-ad49ae5f35d5,MUENCHEN - VON-KAHR-STR. 62,Agip,Von-Kahr-Str.,62,80999,Muenchen,48.17759,11.46744,2.0,4.0,4.0,5.0,5
5c731c1c-1682-4f5e-9eb3-723b79fcac83,Raiffeisen Aßling,Raiffeisen Aßling,Rosenheimer Str.,41,85617,Aßling,47.9869,12.004,,,,,3
5c751aeb-d343-4e51-bd77-d0204dfce418,ISMANING - MUENCHNER STR.57,Agip,Muenchner Str.,57,85737,Ismaning,48.223357665253,11.669466114702,3.0,5.0,5.0,6.0,6
5c97286d-228e-4def-8d30-2c2f63668b92,"MUENCHEN, NYMPHENBURGER STR",Shell,NYMPHENBURGER STR. 57-59,,80335,MUENCHEN,48.149381,11.548005,2.0,4.0,4.0,5.0,5
5de4ac1e-69d6-4dd7-b5cf-eed0208f8214,Aral Tankstelle,ARAL,Münchener Straße,16,85540,Haar,48.10854,11.722106,3.0,5.0,5.0,6.0,6
5e793b3b-c021-4e36-bd2c-55e357a3638e,Bergkirchen Gadastraße 1,OMV,Gadastraße,1,85232,Bergkirchen,48.23738,11.35283,4.0,1.0,2.0,5.0,5
5f7e4b7d-482f-4707-a016-00c104984937,AEZ Tankstelle,Freie,Heimstättenstr. ,44,82256,Fürstenfeldbruck,48.17409,11.2326,,,1.0,14.0,11
5f84a3a0-be8d-4941-b950-6804ac925c64,Esso Tankstelle,ESSO,MUENCHENER STR. 16, ,85391,ALLERSHAUSEN,48.430312,11.593763,,,,21.0,22
60c3a07c-2ebe-4073-adae-a667e22fd4c8,Aral Tankstelle,ARAL,Heinrich-Wieland-Straße,2,81735,München,48.11833,11.63108,3.0,5.0,5.0,6.0,6
610d4bf4-b1a1-4939-9a1f-d18c9f01a07d,GERMERING,Agip,Lise-Meitner-Strasse,2,82110,Germering,48.141191,11.369412,2.0,4.0,4.0,5.0,5
620ba28e-edf4-43d7-bca3-eb0612952475,ALLGUTH GmbH  c/o Gabriele Schütz e.K.,ALLGUTH,Bodenseestr.,231,81243,München,48.142944,11.424927,2.0,4.0,4.0,5.0,5
628d1482-faae-499a-8679-3f87f8c471f1,Berg Höhenrain West A95,OMV,Höhenrain West ,A95,82335,Berg,47.92858,11.40197,,,16.0,22.0,23
628d8b6e-809e-40b9-4d49-6b370c589788,Tankstelle Schwägerl-Bäde,Freie Tankstelle Schwägerl-Bäde,Böhmerwaldstr.,23,82538,Geretsried,47.876258,11.470072,,,,23.0,24
62deee72-aaf3-4bd0-80e7-af9918b142ef,MUENCHEN - DACHAUER STRASSE 469,Agip,Dachauer Strasse,469,80993,Muenchen,48.1845378,11.5054179,2.0,4.0,4.0,5.0,5
63981d4f-ee3c-442a-9e60-930aa69f2cad,Aral Tankstelle,ARAL,Miesbacher Straße,33,83607,Holzkirchen,47.8758049,11.710166,,,,0.0,0
63b147a8-dccc-4bdb-bf00-8bde0dcecd10,Aral Tankstelle,ARAL,Pasinger Straße,50,82166,Gräfelfing,48.1181,11.4426651,2.0,4.0,4.0,5.0,5
65a5184f-f2cf-45ae-99a2-c96bd84e1740,Hallbergmoos Ludwigstraße 54,OMV,Ludwigstr.,54,85399,Hallbergmoos,48.33372,11.73143,,10.0,9.0,12.0,16
65d95b09-e1cb-454f-b3da-49876ad84561,Geretsried Sudetenstraße 67,OMV,Sudetenstr.,67,82538,Geretsried,47.85358,11.49494,,,,20.0,21
66ac515e-7960-4cbd-9f23-d5230944c134,"NEUFARN, MUENCHNER STR.",Shell,MUENCHNER STR. 26,,85646,NEUFARN,48.147598,11.815544,4.0,6.0,6.0,8.0,10
673c00ad-1de6-4876-9845-4ff43c0cec0e,Kirchheim Florianstraße 31,OMV,Florianstraße,31,85551,Kirchheim b. München,48.17562,11.76429,4.0,6.0,6.0,8.0,10
67693691-5653-44b1-9c0f-1151ddc9ea40,ALLGUTH GmbH c/o Marco Stachowiak,ALLGUTH,Kreillerstr. ,220,81825,München,48.12134,11.663854,3.0,5.0,5.0,6.0,6
67849bd9-a514-463b-b21b-f509e68329a9,"HAIMHAUSEN, HAUPTSTR.7.",Shell,HAUPTSTR. 7,,85778,Haimhausen,48.313144,11.550131,7.0,10.0,9.0,12.0,16
67e59180-1bd0-4c5c-bc7d-f725d91f0a6d,Aral Tankstelle,ARAL,Grüneckerstraße,6,85375,Neufahrn,48.3130875,11.6651983,,10.0,9.0,12.0,16
689e1f81-7786-41e0-8f2c-cf722ca309f8,"MAMMENDORF, AUGSBURGER STR",Shell,AUGSBURGER STR. 49,,82291,MAMMENDORF,48.205613,11.156861,,,,2.0,2
6b6a0b44-e2f8-4fe5-a3ea-e4970d41dd13,Aral Tankstelle,ARAL,Münchener Straße,32,83629,Weyarn,47.8639832,11.7957964,,,,0.0,0
6eaab5b6-646e-4439-81fc-ce5005259a15,München Cosimastrasse 10,OMV,Cosimastr.,10,81927,München,48.15563,11.63,3.0,5.0,5.0,6.0,6
6efb6909-7a8d-4e5d-ae70-1ce84dba7d7c,ALLGUTH GmbH c/o Sönmez Günan,ALLGUTH,Geiselbullacher Str. ,7,82140,Olching,48.22589,11.334475,,1.0,2.0,5.0,5
6fce5ae3-c3aa-43ff-a871-01e5fb754022,"HOLZKIRCHEN/OBERBAY., A8 HOL.",Shell,A8 HOLZKIRCHEN NORD,,83607,Holzkirchen/Oberbay.,47.89164,11.731673,,,11.0,15.0,17
6fe2de8c-08f2-4c6d-ae5a-e4bf822e936f,Esso Tankstelle,ESSO,SONNENSTR. 5, ,85764,OBERSCHLEISSHEIM,48.248196,11.551243,7.0,10.0,9.0,12.0,16
739a6c24-254b-4c51-95ff-122c896b9bd7,ERDING - HAAGER STRASSE 34,Agip,Haager Strasse,34,85435,Erding,48.301689967369,11.908378217143,,,,7.0,9
74ff5ad6-e645-4dcc-bae1-e9e2e61af04f,"ASCHHEIM, ERDINGER STR.",Shell,ERDINGER STR. 6,,85609,ASCHHEIM,48.171355,11.719475,4.0,6.0,6.0,8.0,10
765ea063-b104-4cb4-a8b1-f0387dc666a8,Tankstelle am E+C,E+C,Rennweg 41,,85435,Erding,48.31124,11.889902,,,,7.0,9
76649333-ff54-4855-b84b-e04c5bfcbd13,FELDKIRCHEN - BAT VATERSTETTEN OST,Agip,Rastanlage Vaterstetten-Ost,,85622,Feldkirchen,48.12396,11.76034,12.0,15.0,11.0,15.0,17
76af2f1d-e4ed-4e86-9a29-0a527e0b4ba9,"FELDKIRCHEN, MUENCHNER STR.",Shell,MUENCHNER STR. 11,,85622,FELDKIRCHEN,48.145741,11.727692,4.0,6.0,6.0,8.0,10
7a79843c-09fb-4985-b4d5-3b2d41dc0fd7,Aral Tankstelle,ARAL,Münchener Straße,37,85567,Grafing,48.0494,11.9658356,,,,8.0,12
7b2fc7a4-f619-4994-aa91-ce5d880899e0,"MUENCHEN, MENZIGER STR.",Shell,MENZIGER STR. 10,,80638,MUENCHEN,48.160089,11.511804,2.0,4.0,4.0,5.0,5
7d147b50-229a-4ac4-8b38-17e7f4b3376b,Ismaning Münchner Strasse 47,OMV,Münchner Str.,47,85737,Ismaning,48.2256,11.67138,3.0,5.0,5.0,6.0,6
7d7e9d1a-b830-4672-a0a1-1c5cc471c205,Aral Tankstelle,ARAL,Wasserburger Landstr.,51,81825,München,48.11972,11.6777344,3.0,5.0,5.0,6.0,6
7e38e6ed-6e29-4bd2-bba1-8674739b5643,ECHING,Agip,Dieselstrasse,16,85386,Eching,48.310929,11.645722,7.0,10.0,9.0,12.0,16
7f990b02-58ae-4670-b34c-94a09971c681,TOTAL Oberschleißheim,TOTAL,HICKLSTRASSE,2,85764,OBERSCHLEISSHEIM,48.265175,11.593216,7.0,10.0,9.0,12.0,16
7fcad90f-1761-48ad-afc5-157befd7d2e1,Esso Tankstelle,ESSO,AMPERTAL 1, ,85777,FAHRENZHAUSEN,48.348772,11.564102,,10.0,9.0,12.0,16
80ce1182-e40d-4765-bbb7-f48060768a23,FUERSTENFELDBRUCK - MUENCHNER STRAS,Agip,Muenchner Strasse,24/26,82256,Fuerstenfeldbruck,48.17665,11.26006,,1.0,2.0,2.0,2
8131600b-0231-4c41-895e-b9b733125adc,Aral Tankstelle,ARAL,Landsberger Straße,2,82110,Germering,48.1368065,11.3909121,2.0,4.0,4.0,5.0,5
8185cb0e-6dcf-42ad-a5e9-c63209564c96,V-Markt München Balanstrasse,V-Markt München Balanstrasse,Balanstr. ,50,81541,München,48.122192,11.597927,1.0,3.0,3.0,4.0,4
86e9bb80-1255-4f31-84b8-87e043b1e005,MUENCHEN - ALLACHER STRASSE 78,super wash,Allacher Strasse,78,80997,Muenchen,48.177877,11.497085,2.0,4.0,4.0,5.0,5
88dfaaf1-fad6-465a-924e-d675b3b11c23,"PUCHHEIM, EICHENAUER STR. 35.",Shell,EICHENAUER STR. 35,,82178,Puchheim,48.157986,11.334668,2.0,4.0,4.0,5.0,5
8a2cc672-2c7f-4322-a74f-c80336e49c9e,Esso Tankstelle,ESSO,ROSENHEIMER LANDSTR. 73, ,85521,OTTOBRUNN,48.06125447,11.66379537,0.0,0.0,0.0,0.0,0
8bf5c34a-c3f1-4e52-9173-38f6bebbcd3d,"MUENCHEN, FRANKFURTER RING",Shell,FRANKFURTER RING 87,,80807,MUENCHEN,48.187998,11.580609,2.0,4.0,4.0,5.0,5
8d253362-4f6e-4851-be38-8c9551493d3d,Aral Tankstelle,ARAL,Grünwalder Straße,175C,81545,München,48.0963821,11.5641136,3.0,5.0,5.0,6.0,6
8ed0d774-310b-4e49-815b-3879e89ba83c,BayWa Tankstelle Schönau,BayWa,Mailinger Strasse,9,83104,Schönau,47.95059,11.968211,,,,,0
8f2e54d9-12b2-4f42-a012-6942c57688e9,Dachau Brucker Straße 79,OMV,Brucker Str.,79,85221,Dachau,48.25687,11.41902,2.0,4.0,4.0,5.0,5
8fec9d65-531f-447f-b2ef-4fafa4c094a4,Aral Tankstelle,ARAL,Zadarstrasse,11,82256,Fürstenfeldbruck,48.1775322,11.2272863,,,2.0,2.0,2
93dacb1f-72eb-4eb5-a922-5799cc2b1bf5,Aral Tankstelle,ARAL,Wasserburger Landstraße,3,85591,Vaterstetten,48.0962677,11.7713614,3.0,5.0,5.0,6.0,6
9706a9e2-8632-4811-b56c-d3ac77042342,ALLGUTH GmbH  c/o André Dirnberger,ALLGUTH,Obere Bahnhofstr.,58,82110,Germering,48.12987,11.35939,13.0,16.0,18.0,25.0,26
9826b023-5719-48c0-9571-e16641777879,Bavaria Petrol,Bavaria Petrol,Grünwalder Weg,42,82008,Unterhaching,48.0568466,11.5995913,0.0,0.0,0.0,0.0,0
9a305a86-0398-4c30-9070-9702d712d288,Emil Mayr,Frei,Erdinger Str. ,35,85452,Moosinning,48.27676,11.84478,,,0.0,0.0,1
9b7f15f9-17db-4d6b-a606-ebc9f40826c2,"Aral Tankstelle, BAT HOLZKIRCHEN SÜD",ARAL,A,8/Schmiedstraße16,83607,Holzkirchen,47.90727,11.7173357,,,16.0,22.0,23
9bc77a86-ef47-472d-87e3-b22d3eff1682,AVIA Tankstelle,AVIA,Schleißheimer Straße,28,85748,Garching b. München,48.250156,11.647158,7.0,10.0,9.0,12.0,16
9c6921bc-6c3a-4123-8ea2-c1a2abed80bc,Aral Tankstelle,ARAL,Forstenrieder Straße,26,82061,Neuried,48.0914078,11.4682989,5.0,8.0,7.0,9.0,13
9df7845d-9133-4a8d-acc9-a5be7d1a0276,"STARNBERG, MUENCHNERSTR. 8.",Shell,MUENCHNER STR. 8,,82319,STARNBERG,48.002074,11.344671,,8.0,7.0,9.0,13
9f32a2f0-7ebc-4dcc-b8e3-48640824b30b,ALLGUTH GmbH  c/o Mehmet Catan,ALLGUTH,Am Neubruch,7,80997,München,48.192463,11.499939,14.0,17.0,19.0,26.0,27
a0e00e71-fa8e-4ad0-bd17-24c0e0baa6e5,Bavaria Petrol,Bavaria Petrol,Amalienburgstraße,20,81247,München,48.1643181,11.4885406,2.0,4.0,4.0,5.0,5
a170c56a-ea2d-4e72-b424-f60d75181307,Gruber Landsham,Gruber Freie Tankstelle,Erdinger Straße,24,85652,Landsham,48.188352,11.77869,11.0,14.0,17.0,24.0,25
a18c6171-3bb6-48d4-888f-5ba80d635c69,MOORENWEIS - TUERKENFELDER STR. 2,Agip,Tuerkenfelder Str.,2,82272,Moorenweis,48.14694,11.07282,,,,,2
a19f90e5-c603-405c-9a28-c4c42cb3df3d,TOTAL FREISING,TOTAL,ACHERINGER HAUPTSTR.,20,85354,FREISING,48.3444,11.709186,,,9.0,12.0,16
a1ccecb1-15e2-4015-830f-7686dbfaca64,Aral Tankstelle,ARAL,Elbestraße,23,82538,Geretsried,47.8804474,11.4608221,,,15.0,20.0,21
a2c1cdd2-477c-41cd-b116-1cd3b4b3e17c,AVIA Tankstelle,AVIA,Münchner Straße,2,82057,Icking,47.95443,11.438482,,0.0,0.0,0.0,0
a415a4cf-c0e5-4cb0-933c-dbc54709de1a,Aral Tankstelle,ARAL,Erdinger Straße,25,85570,Markt Schwaben,48.1932755,11.8722677,,6.0,6.0,8.0,10
a76506bb-7ccf-4785-1066-f2c5d26bb900,Auto Loder GmbH,Freie Tankstelle Loder,Hauptstr.,1,85235,Odelzhausen,48.309734,11.193687,,,,27.0,28
a8c4085d-2b13-4ba0-81cb-1302d294860d,Herrsching Mühlfeldstr. 44,OMV,Mühlfelderstr.,44,82211,Herrsching,47.99379,11.17299,,,,5.0,5
aa2f7830-2c0a-4a37-803e-8824a8eef426,"FUERSTENFELDBRUCK, AUGSBURGER STR.",Shell,AUGSBURGER STR. 42,,82256,FUERSTENFELDBRUCK,48.186668,11.246658,,,2.0,2.0,2
aa871caa-3b3d-4596-9ced-5d34eb3f1002,Aral Tankstelle,ARAL,Garmischer Straße,138,80686,München,48.12715,11.522233,2.0,4.0,4.0,5.0,5
aab62468-53b6-4f24-995e-c76f98978d5a,Esso Tankstelle,ESSO,FREISINGER STR. 48, ,85416,LANGENBACH,48.434115,11.842232,,,,,16
acb2997b-57aa-4d55-a71b-c9f7d8eef71c,MUENCHEN - VERDISTRASSE 141,Agip,Verdistrasse,141,81247,Muenchen,48.164472415704,11.459228666155,2.0,4.0,4.0,5.0,5
aea76107-92ea-47ea-99ac-4c7fa1491fe8,Esso Tankstelle,ESSO,MUENCHENER STR. 20, ,83620,FELDKIRCHEN-WESTERHAM,47.910443,11.839795,,,,27.0,28
af9bbfb5-7320-414f-aa93-715dfd07182e,Aral Tankstelle,ARAL,Seefelder Straße,28,82211,Herrsching,48.00234,11.1818724,,,,5.0,5
b274766d-4551-4348-9ab7-ffce58ee469c,Esso Tankstelle,ESSO,WUERMTALSTR. 97, ,81375,MUENCHEN,48.114836,11.480826,2.0,4.0,4.0,5.0,5
b2bd0354-a05a-4204-8690-7e5de9a0048b,ERDING - AM KLETTHAMER FELD 2,Agip,Am Kletthamer Feld,2,85435,Erding,48.309203,11.883366,,,10.0,7.0,9
b3a9348f-8f05-4e21-b09a-0a8e1476640c,Aral Tankstelle,ARAL,Sauerlacher Straße,64,82515,Wolfratshausen,47.9139137,11.432373,,,15.0,20.0,21
b457a782-e3d4-4513-a258-c4d3e199d79a,Esso Tankstelle,ESSO,WESTENDSTR. 183, ,80686,MUENCHEN,48.134186,11.523489,2.0,4.0,4.0,5.0,5
b5a23cae-7eaf-4b4d-ae4e-88e57832eaa1,TOTAL FELDKIRCHEN,TOTAL,VATERSTETTEN WEST,A90,85622,VATERSTETTEN,48.1245,11.757973,12.0,15.0,11.0,15.0,17
b617fc5f-e468-4238-b9ba-62bf07bbb027,MUENCHEN - HERTERICHSTRASSE 111,Agip,Herterichstrasse,111,81477,Muenchen,48.07513,11.51092,5.0,8.0,7.0,9.0,13
b620d642-9cb8-4afd-a670-6f8c3227c5dd,"TUTZING, HAUPTSTR",Shell,HAUPTSTR. 9,,82327,TUTZING,47.905089,11.276288,,,,5.0,5
b84b16c1-2dad-4ed0-8823-916d8ed954bf,München Heinrich-Wieland-Str. 97,OMV,Heinrich-Wieland-Str.,97,81735,München,48.11282,11.64806,3.0,5.0,5.0,6.0,6
ba57cc7a-aa15-4fe8-87d4-180fcd1cc8a4,Esso Tankstelle,ESSO,WEINMOOS 2, ,85406,ZOLLING,48.452269,11.765071,,,,,16
bd13582b-6080-4dea-a042-6658b09f53ff,AMIDI Freie Tankstelle,AMIDI Freie Tankstelle,Hauptstr.,17,85235,Odelzhausen,48.308949,11.199224,,,,27.0,28
bd9feb71-5a7d-45aa-acea-0f27bc61430b,Esso Tankstelle,ESSO,KOENIGSDORFER STR. 24, ,82515,WOLFRATSHAUSEN,47.910029,11.421433,,,15.0,20.0,21
be4045b6-e5de-4770-a692-650fa590e26c,BAT FUERHOLZEN WEST A9,Shell,A9 FUERHOLZEN WEST,,85376,NEUFAHRN B.FREISING,48.337919,11.607548,,0.0,20.0,28.0,0
be6ef02c-77ed-48e0-8b87-653cc92ae335,Esso Tankstelle,ESSO,PERCHASTR. 10, ,82335,BERG,47.967687,11.357499,,8.0,7.0,9.0,13
be811e79-cf4f-48dd-a6de-74cdf410bd8e,MUENCHEN - OBERFOEHRINGER STR. 178,Agip,Oberfoehringer Str.,178,81925,Muenchen,48.1680806,11.6245505,3.0,5.0,5.0,6.0,6
bf488106-7f55-4ded-ab7d-ec130d8f2b2c,"GRASBRUNN, KEFERLOH",Shell,KEFERLOH 6,,85630,GRASBRUNN,48.096683,11.729236,3.0,5.0,5.0,6.0,6
bf5ed9c7-f7d0-44b8-a80f-61e9fc6e08d5,ASCHHEIM - EICHENDORFFSTR. 20,Agip,Eichendorffstr.,20,85609,Aschheim,48.165631173141,11.720582799785,4.0,6.0,6.0,8.0,10
bfc8efb6-3b9b-402c-b4c2-e6dfec24675f,München Auerfeldstrasse 21,OMV,Auerfeldstr.,21,81541,München,48.12362,11.59545,3.0,5.0,5.0,6.0,6
c16bc9b8-5d85-4fda-b296-4757138d3e56,BK-Tankstelle Leonard Gramsamer,,Münchner Str. ,22,85464,Neufinsing,48.217754,11.799551,15.0,18.0,21.0,29.0,29
c1ab85a6-a64f-46b9-89d5-260cc1d5d77c,Aral Tankstelle,ARAL,Otto-Perutz-Straße,1-3,81829,München,48.1379471,11.71275,4.0,6.0,6.0,8.0,10
c28c5b0d-f5be-4e9b-8a4a-67cfc55751ec,AVIA Tankstelle,AVIA,Tegernseer Straße,5,83624,Otterfing,47.908215,11.676038,,,0.0,0.0,0
c55364d7-cb92-49e2-9792-50f91fcd33d5,Aral Tankstelle,ARAL,Münchener Straße,13,82054,Sauerlach,47.9736748,11.6536541,0.0,0.0,0.0,0.0,0
c573f0dc-aedb-46b4-a9dd-18b0eb06787e,Aral Tankstelle,ARAL,Schwere-Reiter-Straße,26,80797,München,48.1610031,11.5585041,2.0,4.0,4.0,5.0,5
c6392db4-8b59-420e-a403-b50092adea5b,"STARNBERG, MUENCHENER STR.",Shell,MÜNCHENER STR. 5,,82319,STARNBERG,48.002454,11.344501,,8.0,7.0,9.0,13
c76fa28b-4819-4319-9065-b6e696b316f2,Esso Tankstelle,ESSO,EINSTEINSTR. 168, ,81675,MUENCHEN,48.137168,11.621395,3.0,5.0,5.0,6.0,6
c8055d92-fe51-465c-8569-edda2a74b1a0,Aral Tankstelle,ARAL,Schenkendorfstraße,15,80807,München,48.17729,11.5893526,2.0,4.0,4.0,5.0,5
cc4d88db-5723-4f31-b029-b48895381499,Aral Tankstelle,ARAL,Rudolf-Diesel-Str.,2.,85235,Odelzhausen,48.30709,11.2037792,,,,5.0,5
cd76d303-7e72-4fc8-bbaf-04328901c322,"MUENCHEN, MOOSACHER STR.",Shell,MOOSACHER STR. 25,,80809,MUENCHEN,48.186541,11.561132,2.0,4.0,4.0,5.0,5
cda32095-d4dc-4067-9664-9d80de8ac472,GAUTING - MUENCHNER STRASSE 54,Agip,Muenchner Strasse,54,82131,Gauting,48.068958500025,11.388617366516,2.0,4.0,4.0,5.0,5
cde32a83-5c45-4797-aea3-5c92c5fc113e,Aral Tankstelle,ARAL,Landshuter Allee,163,80637,München,48.1635551,11.537343,2.0,4.0,4.0,5.0,5
ce503b9d-54d1-45c8-98e8-b1da736d4110,"MUENCHEN, SCHWERE-REITER- STR.",Shell,SCHWERE-REITER- STR. 26,,80797,MUENCHEN,48.16114,11.556605,2.0,4.0,4.0,5.0,5
cfdd36a1-5cec-4401-9c06-062d04b8fa09,Aral Tankstelle,ARAL,Bruckerstraße,34a,82266,Inning,48.08877,11.1509867,,,,5.0,2
d07b0067-f28e-4575-836e-b1d565b24b19,Esso Tankstelle,ESSO,MUENCHNER STR. 63, ,85221,DACHAU,48.249052,11.443683,2.0,4.0,4.0,5.0,5
d11f2fdf-b096-4192-a557-fa6a48446314,Aral Tankstelle,ARAL,Sigwolfstraße,2,85435,Erding,48.31487,11.8925667,,,,7.0,9
d2ccdd07-0827-41d8-a1ea-1d1cbee94a53,Aral Tankstelle,ARAL,Berg-am-Laim-Straße,60,81673,München,48.13051,11.6171732,3.0,5.0,5.0,6.0,6
d29cac69-fce1-48e1-acc7-e2071fce0f58,Ebersberg Am Forst 2,OMV,Am Forst,2,85560,Ebersberg,48.09624,11.96238,,,6.0,8.0,12
d2f097c6-08b3-41bc-a6c8-b97743d12a8f,MUENCHEN - WOLFRATSHAUSER STR. 232,Agip,Wolfratshauser Str.,232,81479,Muenchen,48.07575912255,11.523800278048,5.0,8.0,7.0,9.0,13
d7f5e6c6-db4f-4385-9e10-2c9c813ad1ab,TOTAL  HOHENLINDEN,TOTAL,JOSEF-NEUMEIER-STR.,1,85664,HOHENLINDEN,48.155685,11.986555,,,,0.0,0
d8670da9-ee86-451c-b78a-87ffe1a5c93a,München Verdistrasse 68,OMV,Verdistr.,68,81247,München,48.1649,11.4719,2.0,4.0,4.0,5.0,5
d9122fdf-cd05-4299-b83e-39c65aa1592f,KFZ-Tankstelle A. Neumaier ,Freie Tankstelle,Hauptstr. ,36b ,85656,Buch am Buchrain,48.216316,12.001255,,,,1.0,1
d96604a1-0ed7-4882-a292-0ab5436914c2,PLANEGG - BAHNHOFSTR 1,Agip,Bahnhofstr,1,82152,Planegg,48.101858537077,11.426278178278,2.0,4.0,4.0,5.0,5
d97f24ac-29f7-4fd5-9173-1d72ac24e894,"UNTERSCHLEISSHEIM, MÜNCHNER RING 1",Shell,MÜNCHNER RING 1,,85716,Unterschleissheim,48.272074,11.590795,7.0,10.0,9.0,12.0,16
d9babca4-6d00-4d08-81ca-421a3329b83a,Esso Tankstelle,ESSO,WALDWIESENSTR. 39, ,81375,MUENCHEN,48.117461,11.478291,2.0,4.0,4.0,5.0,5
da2fa50c-5be8-4c9a-bdaf-bae4b739a29d,MARKT INDERSDORF - MAROLDSTRASSE,Agip,Maroldstrasse,64,85229,Markt Indersdorf,48.35492,11.38783,,,1.0,1.0,1
daedd891-ce4f-4ed0-ae43-8e64063130dc,Sit-Station Grafing,,Rotter Straße,32,85567,Grafing,48.046177,11.973903,,,,3.0,3
db12f7e2-fc74-4fe6-8968-f30b62436ac1,Esso Tankstelle,ESSO,HOHENLINDNER STR. 34, ,85622,FELDKIRCHEN,48.147003,11.736785,4.0,6.0,6.0,8.0,10
db482d9a-3154-4886-90c9-5ddc26ff49aa,Aral Tankstelle,ARAL,Untere Hauptstraße,11,85386,Eching,48.29818,11.6250839,7.0,10.0,9.0,12.0,16
dba3e2af-0314-4c39-9a13-57244fdeb47d,"MUENCHEN, LIESL-KARLSTADTSTR.",Shell,LIESL-KARLSTADT-STR. 25,,81476,MUENCHEN,48.084623,11.49077,2.0,8.0,7.0,9.0,13
db36edf9-1b44-4358-8e29-e2bdf7b12ef1,Leonhard Anzenberger GmbH,freie Tankstelle,Münchner Straße,8,84424,Isen / Oberbayern,48.21235,12.05644,,,,,1
dc6d5b20-4cdd-402f-9772-08d7e62c7f85,"HOHENSCHAEFTLARN, MUENCHNER STR.",Shell,MUENCHNER STR. 60,,82069,HOHENSCHAEFTLARN,47.992021,11.45946,3.0,0.0,0.0,0.0,0
de4ab744-fb65-4998-8666-bbf110e42dcd,UNTERHACHING - MUENCHNER STR. 121A,Agip,Muenchner Str.,121A,82008,Unterhaching,48.074179551487,11.604503513993,0.0,0.0,0.0,0.0,0
de70d393-f605-484b-a6e4-caa3992ab8ec,Aral Tankstelle,ARAL,Boschetsrieder Straße,127,81379,München,48.09846,11.5185776,5.0,8.0,7.0,9.0,13
de935c7e-bbdd-4d77-942a-69a77d2c1060,Aral Tankstelle,ARAL,Riemer Straße,360,81829,München,48.1406326,11.6839161,3.0,5.0,5.0,6.0,6
dec2ebca-321f-4c94-9fe9-65f94d3732d4,SIT MARKT SCHWABEN,SIT,POINGER STR.,2,85570,MARKT SCHWABEN,48.190296,11.848462,,6.0,6.0,8.0,10
dfffa0d9-7e31-4dd2-8fec-79af950f13ac,Aral Tankstelle,ARAL,Dülferstraße,3,80933,München,48.21265,11.5601387,2.0,4.0,4.0,5.0,5
e1a15081-2561-9107-e040-0b0a3dfe563c,"München, Grünwalder Str. 112",HEM,Grünwalder Str.,112,81547,München,48.10162,11.567095,3.0,5.0,5.0,6.0,6
e2b1503f-6be0-4f7b-979f-b105f3ab28c9,München Freisinger Landstrasse 9,OMV,Freisinger Landstr.,9,80939,München,48.19044,11.61779,2.0,4.0,4.0,5.0,5
e32e8039-1552-4028-afc9-fd3c9376e44c,Aral Tankstelle,ARAL,An der Westumgehung,1,85521,Ottobrunn,48.0720329,11.6522636,0.0,0.0,0.0,0.0,0
e375b879-5c21-4e2d-87fa-a4db5aa100ee,Freie Tankstelle Freisinger Str 28 Marzling,,Freisinger Straße,28,85417,Marzling,48.411006,11.796209,,,,12.0,16
e4b3161b-269e-41f9-8c56-d813a6733668,TOTAL MUENCHEN,TOTAL,LEONRODSTR.,48,80636,MUENCHEN,48.157497,11.543893,2.0,4.0,4.0,5.0,5
e4e48d10-0b37-4ecf-a0bd-552b0302a4af,Kirchdorf Hauptstraße 1,OMV,Hauptstr.,1,85414,Kirchdorf,48.45841,11.6526,,,,,16
e5b69ac7-bdee-4c66-bd1a-a8ca8dbffb5d,Aral Tankstelle,ARAL,Münchner Straße,10,85635,Höhenkirchen-Siegert,48.0197258,11.7098722,0.0,0.0,0.0,0.0,0
e6d75bd3-6c9d-4883-869e-bba46bb3dc79,Aral Tankstelle,ARAL,Lochhausener Straße,229,81249,München,48.17895,11.4051456,2.0,4.0,4.0,5.0,5
e7e893e3-7027-46f5-ab06-da1301eed117,Aral Tankstelle,ARAL,Schroßlacher Straße,2,85391,Allershausen,48.4284248,11.5854406,,,,21.0,22
e9e805ea-8f6d-4450-9fcb-bacad82e4c7a,ELAN UNTERHACHING,ELAN,MUENCHNER STR.,92,82008,UNTERHACHING,48.07781,11.601109,0.0,0.0,0.0,0.0,0
ea323b55-089f-4293-91fc-49cbb6c60035,Esso Tankstelle,ESSO,ERDINGER STR. 5, ,85464,FINSING,48.222088,11.802614,4.0,6.0,6.0,8.0,10
eb8ff3b3-6e15-48c7-bb17-0d8fdd1e11ff,Aral Tankstelle,ARAL,Plinganser Str.,70,81369,München,48.1122742,11.5391817,5.0,8.0,7.0,9.0,13
ec0282d1-1ca2-4f31-8f91-455dc78225cb,Esso Tankstelle,ESSO,ERDINGERSTR. 145, ,85356,FREISING,48.384348,11.7643,,,,12.0,16
eca70e95-396b-4ed5-99bf-001f66c5f0d8,"MUENCHEN, VERDISTR.",Shell,VERDISTR. 96,,81247,MUENCHEN,48.164999,11.467211,2.0,4.0,4.0,5.0,5
ed29a720-c573-49d1-af9c-467c8d83969d,TOTAL MUENCHEN,TOTAL,PETUELRING,92,80807,MUENCHEN,48.17816,11.572129,2.0,4.0,4.0,5.0,5
efce68ae-2e4a-402b-9140-edfa5dfe37c0,Bavaria Petrol,Bavaria Petrol,Berghamer Straße,3,85435,Erding,48.2766037,11.8991833,,,10.0,7.0,9
f045fada-044b-416a-be61-5caf3306a331,"GROEBENZELL, OLCHINGER STR",Shell,OLCHINGER STR. 152,,82194,GROEBENZELL,48.192396,11.373518,2.0,1.0,2.0,5.0,5
f0662565-9a1f-46c9-b93d-4a4facc32e9f,MUENCHEN - FLUGHAFEN NORDALLEE 45,Agip,Flughafen Nordallee,45,85356,Muenchen,48.353954343494,11.749375602332,,,23.0,30.0,30
f0686712-bcfb-40c8-a2eb-9fbb48a24aa3,Esso Tankstelle,ESSO,LORTZINGSTR. 20, ,81241,MUENCHEN,48.148871,11.455071,2.0,4.0,4.0,5.0,5
f2ed6cb5-d0ba-4256-a741-26f56f2d76eb,AVIA Tankstelle,AVIA,Dachauer Straße,10,85247,Schwabhausen,48.296444,11.373626,,4.0,4.0,5.0,5
f3aacba3-28e5-4413-acfa-871464c726c0,MUENCHEN - INNSBRUCKER RING 149,Agip,Innsbrucker Ring,149,81669,Muenchen,48.114350947858,11.61760989143,3.0,5.0,5.0,6.0,6
f556416a-5165-4ab4-98cf-dfcb13c9b952,Zorneding Münchner Strasse 13,OMV,Münchener Str.,13,85604,Zorneding,48.08304,11.82219,4.0,1.0,6.0,8.0,8
f66a6567-785f-4ad4-bd96-a7ce26062b5e,"GRUENWALD, SUEDLICHE MUENCHNER STR.",Shell,SUEDLICHE MUENCHNER STR. 27,,82031,GRUENWALD,48.046886,11.52978,3.0,0.0,0.0,0.0,0
f8172913-8f84-5294-67d9-b79580bc6cb8,pur. einfach tanken,,Gewerbering,8a,82544,Egling,47.9297529,11.5007398,,2.0,0.0,1.0,1
f85cbd55-485e-4bb9-956b-aefb3232d33d,BK-Tankstelle Aichinger,,Hauptstraße ,39,82234,Weßling,48.0755,11.249683,,,0.0,0.0,1
f96b0d2b-c33b-4d8e-a08b-6a9e2f3c657a,MUENCHEN - JOSEPHSPITALSTR. 12,Agip,Josephspitalstrasse,12,80331,Muenchen,48.136641,11.56622,3.0,0.0,0.0,0.0,0
fb150c27-af4b-40fa-aaea-47436bc12041,Aral Tankstelle,ARAL,Garmischer Straße,197,81377,München,48.1213455,11.5188169,2.0,4.0,4.0,5.0,5
fb79c457-543a-4ff6-ba70-cd270ac2110a,Aral Tankstelle,ARAL,Kapuzinerstraße,46,80469,München,48.12389,11.5648308,3.0,0.0,0.0,0.0,0
fd3b21d3-11f7-403c-9884-3668dba7d316,BK-Tankstelle Christian Schmerber,,Pfaffenhofener Str. ,14,85293,Reichertshausen,48.4694,11.509167,,,,,1
fe50b4a5-84c9-4812-a0b7-4b29f589e1e2,UNTERHACHING - ALBERT-SCHWEITZER-ST,Agip,Albert-Schweitzer-Str.,68,82008,Unterhaching,48.082864463563,11.60232256796,0.0,0.0,0.0,0.0,0
fe9be5a3-0e5e-4f29-b07d-69faddac3390,Aral Tankstelle,ARAL,Landsberger Straße,423-425,81241,München,48.14511,11.4786148,2.0,4.0,4.0,5.0,5
feb28bec-a110-4805-9739-3d2042711489,Drivers Inn Tankstelle,Freie Tankstelle,Innstraße,1,85640,Putzbrunn,48.0817,11.6916,0.0,0.0,0.0,0.0,0
1a40cfdc-15d1-4aaf-be32-407f117d285a,ELAN SCHWABHAUSEN,ELAN,AUGSBURGER STR.,4,85247,SCHWABHAUSEN,48.303417,11.355189,,4.0,4.0,5.0,5
68fde088-9a72-4887-bab3-9cd82a001dc7,Aral Tankstelle,ARAL,Tegernseer Landstraße,174,81539,München,48.1077423,11.5795317,3.0,5.0,5.0,6.0,6
9ae83fef-f6ca-44e8-9cbd-1fee129a1686,AVIA Tankstelle,AVIA,Thalhauser Straße,44,85354,Freising,48.39981,11.730195,,,,12.0,16
a34a8781-33c1-40b4-85a1-5e2645248f24,Aral Tankstelle,ARAL,Johann-G.-Gutenbergstraße,1,82140,Olching,48.1993027,11.3348866,2.0,1.0,2.0,5.0,5
bcef8473-305c-4617-aa90-a87a459786ee,München Freisinger Landstrasse 26,OMV,Freisinger Landstr.,26,80939,München,48.19113,11.62036,2.0,4.0,4.0,5.0,5
e50c6d10-4349-434d-b2db-a092099831eb,FTO-Freie Tankstelle Oliv Wolfratshausen,,Hans-Urmiller-Ring,21,82515,Wolfratshausen,47.903821,11.425926,,,22.0,13.0,7
e8c48b48-5ec2-4795-96e9-95391c371c24,Holzkirchen Maitz 3,OMV,Maitz,3,83607,Holzkirchen,47.88855,11.68485,,,0.0,0.0,8
51d4b535-a095-1aa0-e100-80009459e03a,JET MUENCHEN HEIDEMANNSTR. 40,JET,HEIDEMANNSTR. 40,,80939,MUENCHEN,48.2011,11.5898,2.0,4.0,4.0,5.0,5
f19f6aec-ab83-4c6e-93c3-9b68329e3f6a,Fürholzen,OMV,Ausfahrt Fürholzen,A 9,85376,Fürholzen,48.33577,11.61124,,7.0,16.0,22.0,23
00060437-0001-4444-8888-acdc00000001,KFZService Schneider & Mahl/Easy Sprit,Easy Sprit,Münchner Strasse,21,82278,Althegnenberg,48.234310150146,11.070441246033,,,,,0
0a232eef-5e75-4a2b-a0b0-d31e1883e29f,"MUENCHEN, BODENSEESTR.",Shell,BODENSEESTR. 40,,81243,MUENCHEN,48.146904,11.451424,2.0,4.0,4.0,5.0,5
2e42747d-1be1-472a-4fc5-d3073ad7d533,Freie Tankstelle Endrass,freie Tankstelle Endrass,Kistlerhofstr.,259,81379,München,48.094091,11.505642,5.0,8.0,7.0,9.0,13
51d4b41e-a095-1aa0-e100-80009459e03a,Supermarkt-Tankstelle ECHING HEISENBERGSTR. 3,Supermarkt-Tankstelle,HEISENBERGSTR. 3,,85386,ECHING,48.3032,11.6313,7.0,10.0,9.0,12.0,16
51d4b49a-a095-1aa0-e100-80009459e03a,JET MUENCHEN FRANKFURTER RING 241,JET,FRANKFURTER RING 241,,80807,MUENCHEN,48.1867,11.6066,2.0,4.0,4.0,5.0,5
51d4b676-a095-1aa0-e100-80009459e03a,JET MUENCHEN FUERSTENRIEDER STR. 207,JET,FUERSTENRIEDER STR. 207,,81377,MUENCHEN,48.1176,11.5028,2.0,4.0,4.0,5.0,5
26d1059f-e9f0-4911-8474-9693f76a6fec,MUENCHEN - IMPLER STR. 21,Agip,Impler Str.,21,81371,Muenchen,48.122377853127,11.548642150647,3.0,0.0,0.0,0.0,0
51d4b443-a095-1aa0-e100-80009459e03a,JET MUENCHEN LANDSBERGER STR. 184,JET,LANDSBERGER STR. 184,,80687,MUENCHEN,48.1411,11.5226,2.0,4.0,4.0,5.0,5
9d296741-8247-4a5f-be34-4aafe9e36a2c,AVIA Tankstelle,AVIA Xpress,Augsburger Straße,1,82278,Althegnenberg,48.234463,11.062729,,,,,0
00041450-0002-4444-8888-acdc00000002,NeebTank,,Lochhamer Schlag,13,82166,Gräfelfing,48.121894836426,11.451392173767,0.0,0.0,0.0,0.0,0
00060389-0002-4444-8888-acdc00000002,Seitz Tankstelle Weichs,Seitz Tankstellen,Münchner Straße,19,85258,Weichs,48.378456115723,11.410413742065,,,1.0,1.0,1
00060399-0001-4444-8888-acdc00000001,Tankstelle Gartner,,Zinneberger St,11,85625,Glonn,47.988662719727,11.874496459961,,,0.0,1.0,1
00061055-0003-4444-8888-acdc00000003,S-Tank GmbH,S-TANK Langenpettenbach,Schrobenhauserstraße,1,85229,Langenpettenbach,48.380958557129,11.353256225586,,,,0.0,1
0186b46d-eeba-4a5a-8982-76be5acf8dee,Bavaria Petrol,Bavaria Petrol,Eugen-Sänger-Ring,1,85649,Brunnthal,48.0430336,11.6643181,0.0,0.0,0.0,0.0,0
19275bf1-8186-47d8-b5eb-261431afaced,Esso Tankstelle,ESSO,SCHLOSSSTR. 161 A, ,82140,OLCHING,48.198251,11.301376,,1.0,2.0,2.0,2
05b4fbb3-13d8-4641-a461-543901e25b29,"MUENCHEN, TEGERNSEER LANDSTR.",Shell,TEGERNSEER LANDSTR. 181,,81539,MUENCHEN,48.107649,11.580246,3.0,5.0,5.0,6.0,6
2ba871b9-634a-4b92-9b5c-5c3efda57077,ALLGUTH GmbH  c/o Tank & Bistro GmbH,ALLGUTH,Fürstenrieder Straße,210,81377,München,48.12108,11.50224,2.0,8.0,7.0,9.0,13
345b76b2-e4f6-4914-a3c8-0d1e29a082b5,ALLGUTH GmbH  c/o Mathias Gebhard e.K.,ALLGUTH,Dieselstraße,4,85716,Unterschleißheim,48.281574,11.5723295,6.0,9.0,8.0,11.0,15
42ddd4e2-9c2e-41d5-b441-eb9f54259535,Fürstenfeldbruck Münchner Strasse 30,Avanti,Münchner Str.,30,82256,Fürstenfeldbruck,48.17659,11.25996,,1.0,2.0,2.0,2
47b6c7c4-65fe-4ad5-8aab-3969e53a084c,MÜNCHEN - BOSCHETSRIEDER STR. 162,Agip,Boschetsrieder Str.,162,81379,München,48.099,11.50711,5.0,8.0,7.0,9.0,13
48500bf0-4e43-4c10-958b-5bb9eb17fb62,MUENCHEN - COSIMASTRASSE 234,Agip,Cosimastrasse,234,81927,Muenchen,48.17227843144,11.636868397327,3.0,5.0,5.0,6.0,6
51810dfd-e107-4f6a-5fb5-8e6b5f099bb3,SÜD-TREIBSTOFF TANKSTELLE,freie Tankstelle,Schönstraße,15,81543,München,48.110357,11.567889,9.0,11.0,12.0,16.0,18
51d4b65d-a095-1aa0-e100-80009459e03a,JET ERDING ALTE ROEMERSTR. 17,JET,ALTE ROEMERSTR. 17,,85435,ERDING,48.3115,11.9195,,,,7.0,9
51d4b6b2-a095-1aa0-e100-80009459e03a,JET MAISACH GERTRAUD-KOELBL-STR. 2,JET,GERTRAUD-KOELBL-STR. 2,,82216,MAISACH,48.217339,11.265664,,1.0,2.0,2.0,2
51d4b6bd-a095-1aa0-e100-80009459e03a,JET OLCHING GEISELBULLACHER STR. 1,JET,GEISELBULLACHER STR. 1,,82140,OLCHING,48.2233,11.3368,,13.0,14.0,18.0,2
64cc4dd1-1473-4404-83e8-bb816df582c9,Gruber Ottobrunn,Gruber Freie Tankstelle,Rosenheimer Landstraße,50,85521,Ottobrunn,48.063716,11.661821,11.0,14.0,17.0,24.0,25
8d3f8ec1-95ba-42bc-9c9a-79432c2695e3,Aral Tankstelle,ARAL,Richard Strauss-Straße,70,81679,München,48.1457176,11.6163387,3.0,5.0,5.0,6.0,6
900fc4ef-a973-4baf-981d-ab86b0c199c2,UNTERSCHLEIßHEIM - BEZIRKSSTRAßE,Agip,Bezirksstraße,29,85716,Unterschleißheim,48.281759548411,11.575788998547,7.0,10.0,9.0,12.0,16
90295382-9fae-42c2-b84d-1bfac2545fb5,MAITENBETH - THAL 11,Agip,Thal,11,83558,Maitenbeth-Thal,48.152753252935,12.089514664894,,,,,0
d3ef2892-11b5-4032-adf9-13cf2206f726,Anzing Münchner Strasse 11,OMV,Münchner Str.,11,85646,Anzing,48.15124,11.85108,,6.0,6.0,8.0,10
e42c4d80-1f3d-4456-9a28-1d0a665e09fb,Aral Tankstelle,ARAL,Alte Römerstraße,50,85221,Dachau,48.2596855,11.4699373,2.0,4.0,4.0,5.0,5
